{
  "type": "FeatureCollection",
  "features": [
    {
      "type": "Feature",
      "properties": {
        "norad_id": 58647,
        "name": "TIANMU-1 13",
        "group": "weather",
        "lat": 17.530068165227824,
        "lon": -159.90965211826276,
        "alt_km": 489.72961575849513,
        "timestamp": "2025-12-24T07:45:05.842217+00:00",
        "meta_object_name": "TIANMU-1 13",
        "meta_object_id": "2023-205C",
        "meta_epoch": "2025-12-23T23:09:58.787136",
        "meta_mean_motion": 15.2465878,
        "meta_eccentricity": 0.00065498,
        "meta_inclination": 97.361,
        "meta_ra_of_asc_node": 17.3985,
        "meta_arg_of_pericenter": 217.8704,
        "meta_mean_anomaly": 142.2074,
        "meta_ephemeris_type": 0,
        "meta_classification_type": "U",
        "meta_norad_cat_id": 58647,
        "meta_element_set_no": 999,
        "meta_rev_at_epoch": 11078,
        "meta_bstar": 0.00026020643,
        "meta_mean_motion_dot": 6.36e-05,
        "meta_mean_motion_ddot": 0,
        "tle_line1": "1 58647U 23205C   25357.96526374  .00006360  00000+0  26021-3 0  9994",
        "tle_line2": "2 58647  97.3610  17.3985 0006549 217.8704 142.2074 15.24658780110787"
      },
      "geometry": {
        "type": "Point",
        "coordinates": [
          -159.90965211826276,
          17.530068165227824
        ]
      }
    },
    {
      "type": "Feature",
      "properties": {
        "norad_id": 58648,
        "name": "TIANMU-1 14",
        "group": "weather",
        "lat": -71.23467619643914,
        "lon": 174.74519541277826,
        "alt_km": 494.8290641217918,
        "timestamp": "2025-12-24T07:45:05.842232+00:00",
        "meta_object_name": "TIANMU-1 14",
        "meta_object_id": "2023-205D",
        "meta_epoch": "2025-12-24T00:20:45.784320",
        "meta_mean_motion": 15.24642532,
        "meta_eccentricity": 0.00072657,
        "meta_inclination": 97.3543,
        "meta_ra_of_asc_node": 16.7852,
        "meta_arg_of_pericenter": 223.9345,
        "meta_mean_anomaly": 136.1316,
        "meta_ephemeris_type": 0,
        "meta_classification_type": "U",
        "meta_norad_cat_id": 58648,
        "meta_element_set_no": 999,
        "meta_rev_at_epoch": 11079,
        "meta_bstar": 0.00027616623,
        "meta_mean_motion_dot": 6.752e-05,
        "meta_mean_motion_ddot": 0,
        "tle_line1": "1 58648U 23205D   25358.01441880  .00006752  00000+0  27617-3 0  9997",
        "tle_line2": "2 58648  97.3543  16.7852 0007265 223.9345 136.1316 15.24642532110794"
      },
      "geometry": {
        "type": "Point",
        "coordinates": [
          174.74519541277826,
          -71.23467619643914
        ]
      }
    },
    {
      "type": "Feature",
      "properties": {
        "norad_id": 58660,
        "name": "TIANMU-1 19",
        "group": "weather",
        "lat": -70.48707838406051,
        "lon": 130.97543469930469,
        "alt_km": 488.63188753169925,
        "timestamp": "2025-12-24T07:45:05.842242+00:00",
        "meta_object_name": "TIANMU-1 19",
        "meta_object_id": "2023-208A",
        "meta_epoch": "2025-12-23T22:38:10.370112",
        "meta_mean_motion": 15.28045578,
        "meta_eccentricity": 0.0004705,
        "meta_inclination": 97.4392,
        "meta_ra_of_asc_node": 108.9595,
        "meta_arg_of_pericenter": 204.9244,
        "meta_mean_anomaly": 155.1769,
        "meta_ephemeris_type": 0,
        "meta_classification_type": "U",
        "meta_norad_cat_id": 58660,
        "meta_element_set_no": 999,
        "meta_rev_at_epoch": 11053,
        "meta_bstar": 0.00035446392,
        "meta_mean_motion_dot": 9.627e-05,
        "meta_mean_motion_ddot": 0,
        "tle_line1": "1 58660U 23208A   25357.94317558  .00009627  00000+0  35446-3 0  9992",
        "tle_line2": "2 58660  97.4392 108.9595 0004705 204.9244 155.1769 15.28045578110538"
      },
      "geometry": {
        "type": "Point",
        "coordinates": [
          130.97543469930469,
          -70.48707838406051
        ]
      }
    },
    {
      "type": "Feature",
      "properties": {
        "norad_id": 58661,
        "name": "TIANMU-1 20",
        "group": "weather",
        "lat": 51.17598117822997,
        "lon": 100.46076630155711,
        "alt_km": 477.89319923809217,
        "timestamp": "2025-12-24T07:45:05.842252+00:00",
        "meta_object_name": "TIANMU-1 20",
        "meta_object_id": "2023-208B",
        "meta_epoch": "2025-12-23T22:06:11.377728",
        "meta_mean_motion": 15.29236362,
        "meta_eccentricity": 0.00067525,
        "meta_inclination": 97.433,
        "meta_ra_of_asc_node": 109.3959,
        "meta_arg_of_pericenter": 219.3872,
        "meta_mean_anomaly": 140.6877,
        "meta_ephemeris_type": 0,
        "meta_classification_type": "U",
        "meta_norad_cat_id": 58661,
        "meta_element_set_no": 999,
        "meta_rev_at_epoch": 11060,
        "meta_bstar": 0.00035014206,
        "meta_mean_motion_dot": 9.865e-05,
        "meta_mean_motion_ddot": 0,
        "tle_line1": "1 58661U 23208B   25357.92096502  .00009865  00000+0  35014-3 0  9999",
        "tle_line2": "2 58661  97.4330 109.3959 0006752 219.3872 140.6877 15.29236362110602"
      },
      "geometry": {
        "type": "Point",
        "coordinates": [
          100.46076630155711,
          51.17598117822997
        ]
      }
    },
    {
      "type": "Feature",
      "properties": {
        "norad_id": 58662,
        "name": "TIANMU-1 21",
        "group": "weather",
        "lat": 17.908784337426066,
        "lon": -65.82223569422095,
        "alt_km": 468.18601469578516,
        "timestamp": "2025-12-24T07:45:05.842262+00:00",
        "meta_object_name": "TIANMU-1 21",
        "meta_object_id": "2023-208C",
        "meta_epoch": "2025-12-23T23:12:28.672128",
        "meta_mean_motion": 15.31782357,
        "meta_eccentricity": 0.00063921,
        "meta_inclination": 97.4379,
        "meta_ra_of_asc_node": 111.4008,
        "meta_arg_of_pericenter": 213.5794,
        "meta_mean_anomaly": 146.5043,
        "meta_ephemeris_type": 0,
        "meta_classification_type": "U",
        "meta_norad_cat_id": 58662,
        "meta_element_set_no": 999,
        "meta_rev_at_epoch": 11071,
        "meta_bstar": 0.00035409706,
        "meta_mean_motion_dot": 0.00010798,
        "meta_mean_motion_ddot": 0,
        "tle_line1": "1 58662U 23208C   25357.96699852  .00010798  00000+0  35410-3 0  9998",
        "tle_line2": "2 58662  97.4379 111.4008 0006392 213.5794 146.5043 15.31782357110719"
      },
      "geometry": {
        "type": "Point",
        "coordinates": [
          -65.82223569422095,
          17.908784337426066
        ]
      }
    },
    {
      "type": "Feature",
      "properties": {
        "norad_id": 58663,
        "name": "TIANMU-1 22",
        "group": "weather",
        "lat": -78.52679843280178,
        "lon": 149.46258903879385,
        "alt_km": 488.51409869984946,
        "timestamp": "2025-12-24T07:45:05.842274+00:00",
        "meta_object_name": "TIANMU-1 22",
        "meta_object_id": "2023-208D",
        "meta_epoch": "2025-12-23T22:40:31.354176",
        "meta_mean_motion": 15.27785739,
        "meta_eccentricity": 0.00029083,
        "meta_inclination": 97.4386,
        "meta_ra_of_asc_node": 109.015,
        "meta_arg_of_pericenter": 229.0803,
        "meta_mean_anomaly": 131.0184,
        "meta_ephemeris_type": 0,
        "meta_classification_type": "U",
        "meta_norad_cat_id": 58663,
        "meta_element_set_no": 999,
        "meta_rev_at_epoch": 11054,
        "meta_bstar": 0.00032716665,
        "meta_mean_motion_dot": 8.807e-05,
        "meta_mean_motion_ddot": 0,
        "tle_line1": "1 58663U 23208D   25357.94480734  .00008807  00000+0  32717-3 0  9999",
        "tle_line2": "2 58663  97.4386 109.0150 0002908 229.0803 131.0184 15.27785739110549"
      },
      "geometry": {
        "type": "Point",
        "coordinates": [
          149.46258903879385,
          -78.52679843280178
        ]
      }
    },
    {
      "type": "Feature",
      "properties": {
        "norad_id": 58700,
        "name": "TIANMU-1 15",
        "group": "weather",
        "lat": -81.28063684644154,
        "lon": -121.52656419237717,
        "alt_km": 496.02530466861026,
        "timestamp": "2025-12-24T07:45:05.842285+00:00",
        "meta_object_name": "TIANMU-1 15",
        "meta_object_id": "2024-004A",
        "meta_epoch": "2025-12-23T22:40:28.636032",
        "meta_mean_motion": 15.24549104,
        "meta_eccentricity": 0.00060388,
        "meta_inclination": 97.4626,
        "meta_ra_of_asc_node": 179.3722,
        "meta_arg_of_pericenter": 242.4566,
        "meta_mean_anomaly": 117.6059,
        "meta_ephemeris_type": 0,
        "meta_classification_type": "U",
        "meta_norad_cat_id": 58700,
        "meta_element_set_no": 999,
        "meta_rev_at_epoch": 10905,
        "meta_bstar": 0.00028050433,
        "meta_mean_motion_dot": 6.837e-05,
        "meta_mean_motion_ddot": 0,
        "tle_line1": "1 58700U 24004A   25357.94477588  .00006837  00000+0  28050-3 0  9995",
        "tle_line2": "2 58700  97.4626 179.3722 0006038 242.4566 117.6059 15.24549104109052"
      },
      "geometry": {
        "type": "Point",
        "coordinates": [
          -121.52656419237717,
          -81.28063684644154
        ]
      }
    }
  ]
}